[{"OBJECT_NAME":"STARLINK-3301","OBJECT_ID":"2021-125P","EPOCH":"2025-09-24T06:51:15.096960","MEAN_MOTION":15.08834045,"ECCENTRICITY":0.00014547,"INCLINATION":53.217,"RA_OF_ASC_NODE":276.1378,"ARG_OF_PERICENTER":86.2698,"MEAN_ANOMALY":273.846,"EPHEMERIS_TYPE":0,"CLASSIFICATION_TYPE":"U","NORAD_CAT_ID":50169,"ELEMENT_SET_NO":999,"REV_AT_EPOCH":21148,"BSTAR":6.408217e-6,"MEAN_MOTION_DOT":-1.86e-6,"MEAN_MOTION_DDOT":0},{"OBJECT_NAME":"STARLINK-3245","OBJECT_ID":"2021-125Q","EPOCH":"2025-09-24T07:23:02.556672","MEAN_MOTION":15.08849702,"ECCENTRICITY":0.00013063,"INCLINATION":53.2162,"RA_OF_ASC_NODE":276.0385,"ARG_OF_PERICENTER":86.2187,"MEAN_ANOMALY":273.8955,"EPHEMERIS_TYPE":0,"CLASSIFICATION_TYPE":"U","NORAD_CAT_ID":50170,"ELEMENT_SET_NO":999,"REV_AT_EPOCH":21147,"BSTAR":-1.1562597e-5,"MEAN_MOTION_DOT":-4.72e-6,"MEAN_MOTION_DDOT":0},{"OBJECT_NAME":"STARLINK-3286","OBJECT_ID":"2021-125R","EPOCH":"2025-09-24T04:33:28.236096","MEAN_MOTION":15.08838272,"ECCENTRICITY":0.00012483,"INCLINATION":53.2153,"RA_OF_ASC_NODE":276.5688,"ARG_OF_PERICENTER":82.4394,"MEAN_ANOMALY":277.674,"EPHEMERIS_TYPE":0,"CLASSIFICATION_TYPE":"U","NORAD_CAT_ID":50171,"ELEMENT_SET_NO":999,"REV_AT_EPOCH":21146,"BSTAR":1.97746e-6,"MEAN_MOTION_DOT":-2.56e-6,"MEAN_MOTION_DDOT":0},{"OBJECT_NAME":"STARLINK-3287","OBJECT_ID":"2021-125S","EPOCH":"2025-09-24T05:37:03.280800","MEAN_MOTION":15.08838735,"ECCENTRICITY":0.00013797,"INCLINATION":53.2165,"RA_OF_ASC_NODE":276.372,"ARG_OF_PERICENTER":86.8729,"MEAN_ANOMALY":273.2421,"EPHEMERIS_TYPE":0,"CLASSIFICATION_TYPE":"U","NORAD_CAT_ID":50172,"ELEMENT_SET_NO":999,"REV_AT_EPOCH":21150,"BSTAR":4.345532e-5,"MEAN_MOTION_DOT":4.04e-6,"MEAN_MOTION_DDOT":0},{"OBJECT_NAME":"STARLINK-3289","OBJECT_ID":"2021-125T","EPOCH":"2025-09-24T06:26:05.733024","MEAN_MOTION":15.08837945,"ECCENTRICITY":0.00015197,"INCLINATION":53.217,"RA_OF_ASC_NODE":266.2827,"ARG_OF_PERICENTER":86.9692,"MEAN_ANOMALY":273.1474,"EPHEMERIS_TYPE":0,"CLASSIFICATION_TYPE":"U","NORAD_CAT_ID":50173,"ELEMENT_SET_NO":999,"REV_AT_EPOCH":21162,"BSTAR":1.5273272e-5,"MEAN_MOTION_DOT":-4.5e-7,"MEAN_MOTION_DDOT":0},{"OBJECT_NAME":"STARLINK-3292","OBJECT_ID":"2021-125U","EPOCH":"2025-09-24T06:24:15.003648","MEAN_MOTION":15.08854807,"ECCENTRICITY":0.0001287,"INCLINATION":53.2151,"RA_OF_ASC_NODE":271.8337,"ARG_OF_PERICENTER":85.3259,"MEAN_ANOMALY":274.788,"EPHEMERIS_TYPE":0,"CLASSIFICATION_TYPE":"U","NORAD_CAT_ID":50174,"ELEMENT_SET_NO":999,"REV_AT_EPOCH":21158,"BSTAR":0.00039836572,"MEAN_MOTION_DOT":6.06e-5,"MEAN_MOTION_DDOT":0},{"OBJECT_NAME":"STARLINK-3291","OBJECT_ID":"2021-125V","EPOCH":"2025-09-24T07:28:20.351424","MEAN_MOTION":15.08836569,"ECCENTRICITY":0.00011517,"INCLINATION":53.2166,"RA_OF_ASC_NODE":276.0219,"ARG_OF_PERICENTER":89.781,"MEAN_ANOMALY":270.3314,"EPHEMERIS_TYPE":0,"CLASSIFICATION_TYPE":"U","NORAD_CAT_ID":50175,"ELEMENT_SET_NO":999,"REV_AT_EPOCH":21148,"BSTAR":4.4732357e-5,"MEAN_MOTION_DOT":4.24e-6,"MEAN_MOTION_DDOT":0},{"OBJECT_NAME":"STARLINK-3293","OBJECT_ID":"2021-125W","EPOCH":"2025-09-24T05:26:27.285216","MEAN_MOTION":15.08838705,"ECCENTRICITY":0.00012831,"INCLINATION":53.2171,"RA_OF_ASC_NODE":276.4033,"ARG_OF_PERICENTER":86.8412,"MEAN_ANOMALY":273.2727,"EPHEMERIS_TYPE":0,"CLASSIFICATION_TYPE":"U","NORAD_CAT_ID":50176,"ELEMENT_SET_NO":999,"REV_AT_EPOCH":21151,"BSTAR":6.8965601e-5,"MEAN_MOTION_DOT":8.1e-6,"MEAN_MOTION_DDOT":0},{"OBJECT_NAME":"STARLINK-3282","OBJECT_ID":"2021-125X","EPOCH":"2025-09-24T07:17:44.426688","MEAN_MOTION":15.08841477,"ECCENTRICITY":0.00013539,"INCLINATION":53.2165,"RA_OF_ASC_NODE":276.0551,"ARG_OF_PERICENTER":83.3112,"MEAN_ANOMALY":276.8034,"EPHEMERIS_TYPE":0,"CLASSIFICATION_TYPE":"U","NORAD_CAT_ID":50177,"ELEMENT_SET_NO":999,"REV_AT_EPOCH":21148,"BSTAR":-7.900316e-6,"MEAN_MOTION_DOT":-4.14e-6,"MEAN_MOTION_DDOT":0},{"OBJECT_NAME":"STARLINK-3284","OBJECT_ID":"2021-125Y","EPOCH":"2025-09-24T08:00:03.000384","MEAN_MOTION":15.16845653,"ECCENTRICITY":0.00014745,"INCLINATION":53.217,"RA_OF_ASC_NODE":275.5001,"ARG_OF_PERICENTER":76.9897,"MEAN_ANOMALY":163.432,"EPHEMERIS_TYPE":0,"CLASSIFICATION_TYPE":"U","NORAD_CAT_ID":50178,"ELEMENT_SET_NO":999,"REV_AT_EPOCH":566,"BSTAR":0.0036876245,"MEAN_MOTION_DOT":0.00073863,"MEAN_MOTION_DDOT":0},{"OBJECT_NAME":"STARLINK-3283","OBJECT_ID":"2021-125Z","EPOCH":"2025-09-24T05:31:46.027776","MEAN_MOTION":15.08857927,"ECCENTRICITY":0.00012109,"INCLINATION":53.216,"RA_OF_ASC_NODE":276.3866,"ARG_OF_PERICENTER":96.0983,"MEAN_ANOMALY":264.0147,"EPHEMERIS_TYPE":0,"CLASSIFICATION_TYPE":"U","NORAD_CAT_ID":50179,"ELEMENT_SET_NO":999,"REV_AT_EPOCH":21147,"BSTAR":0.00031940958,"MEAN_MOTION_DOT":4.802e-5,"MEAN_MOTION_DDOT":0},{"OBJECT_NAME":"STARLINK-3265","OBJECT_ID":"2021-125AA","EPOCH":"2025-09-24T06:47:19.654368","MEAN_MOTION":15.08838866,"ECCENTRICITY":0.00014307,"INCLINATION":53.2176,"RA_OF_ASC_NODE":276.1615,"ARG_OF_PERICENTER":88.9269,"MEAN_ANOMALY":271.1887,"EPHEMERIS_TYPE":0,"CLASSIFICATION_TYPE":"U","NORAD_CAT_ID":50180,"ELEMENT_SET_NO":999,"REV_AT_EPOCH":21152,"BSTAR":3.8780978e-5,"MEAN_MOTION_DOT":3.29e-6,"MEAN_MOTION_DDOT":0},{"OBJECT_NAME":"STARLINK-3285","OBJECT_ID":"2021-125AB","EPOCH":"2025-09-24T06:36:43.822080","MEAN_MOTION":15.08839084,"ECCENTRICITY":0.00013567,"INCLINATION":53.2163,"RA_OF_ASC_NODE":276.1926,"ARG_OF_PERICENTER":90.5127,"MEAN_ANOMALY":269.602,"EPHEMERIS_TYPE":0,"CLASSIFICATION_TYPE":"U","NORAD_CAT_ID":50181,"ELEMENT_SET_NO":999,"REV_AT_EPOCH":21148,"BSTAR":2.4834748e-5,"MEAN_MOTION_DOT":1.07e-6,"MEAN_MOTION_DDOT":0},{"OBJECT_NAME":"STARLINK-3277","OBJECT_ID":"2021-125AC","EPOCH":"2025-09-24T04:28:08.575104","MEAN_MOTION":15.08832222,"ECCENTRICITY":0.00012619,"INCLINATION":53.2152,"RA_OF_ASC_NODE":276.4307,"ARG_OF_PERICENTER":90.9389,"MEAN_ANOMALY":269.1748,"EPHEMERIS_TYPE":0,"CLASSIFICATION_TYPE":"U","NORAD_CAT_ID":50182,"ELEMENT_SET_NO":999,"REV_AT_EPOCH":21150,"BSTAR":-7.432961e-6,"MEAN_MOTION_DOT":-4.06e-6,"MEAN_MOTION_DDOT":0},{"OBJECT_NAME":"STARLINK-3281","OBJECT_ID":"2021-125AD","EPOCH":"2025-09-24T06:30:03.011616","MEAN_MOTION":15.08843096,"ECCENTRICITY":9.87e-5,"INCLINATION":53.2154,"RA_OF_ASC_NODE":276.2017,"ARG_OF_PERICENTER":78.2957,"MEAN_ANOMALY":281.8146,"EPHEMERIS_TYPE":0,"CLASSIFICATION_TYPE":"U","NORAD_CAT_ID":50183,"ELEMENT_SET_NO":999,"REV_AT_EPOCH":21152,"BSTAR":-0.00013177009,"MEAN_MOTION_DOT":-2.384e-5,"MEAN_MOTION_DDOT":0},{"OBJECT_NAME":"STARLINK-3279","OBJECT_ID":"2021-125AF","EPOCH":"2025-09-24T06:45:57.283200","MEAN_MOTION":15.08833863,"ECCENTRICITY":0.00013902,"INCLINATION":53.2157,"RA_OF_ASC_NODE":276.1935,"ARG_OF_PERICENTER":79.9555,"MEAN_ANOMALY":280.1594,"EPHEMERIS_TYPE":0,"CLASSIFICATION_TYPE":"U","NORAD_CAT_ID":50185,"ELEMENT_SET_NO":999,"REV_AT_EPOCH":21148,"BSTAR":0.00017213865,"MEAN_MOTION_DOT":2.452e-5,"MEAN_MOTION_DDOT":0}]
