50169,STARLINK-3301,2021,95.44,260.0,+,53.22,Active,1,LEO,USA,USA,Commercial,Communications,Falcon,1 50169U 21125P   25267.28559140 -.00000186  00000+0  64082-5 0  9998,2 50169  53.2170 276.1378 0001454  86.2698 273.8460 15.08834045211482,15.08834045,0.0001454,LEO
50170,STARLINK-3245,2021,95.44,260.0,+,53.22,Active,1,LEO,USA,USA,Commercial,Communications,Falcon,1 50170U 21125Q   25267.30766848 -.00000472  00000+0 -11563-4 0  9992,2 50170  53.2162 276.0385 0001306  86.2187 273.8955 15.08849702211475,15.08849702,0.0001306,LEO
50171,STARLINK-3286,2021,95.44,260.0,+,53.22,Active,1,LEO,USA,USA,Commercial,Communications,Falcon,1 50171U 21125R   25267.18991014 -.00000256  00000+0  19775-5 0  9997,2 50171  53.2153 276.5688 0001248  82.4394 277.6740 15.08838272211463,15.08838272,0.0001248,LEO
50172,STARLINK-3287,2021,95.44,260.0,+,53.22,Active,1,LEO,USA,USA,Commercial,Communications,Falcon,1 50172U 21125S   25267.23406575  .00000404  00000+0  43455-4 0  9992,2 50172  53.2165 276.3720 0001379  86.8729 273.2421 15.08838735211504,15.08838735,0.0001379,LEO
50173,STARLINK-3289,2021,95.44,260.0,+,53.22,Active,1,LEO,USA,USA,Commercial,Communications,Falcon,1 50173U 21125T   25267.26812191 -.00000045  00000+0  15273-4 0  9990,2 50173  53.2170 266.2827 0001519  86.9692 273.1474 15.08837945211625,15.08837945,0.0001519,LEO
50174,STARLINK-3292,2021,95.44,260.0,+,53.22,Active,1,LEO,USA,USA,Commercial,Communications,Falcon,1 50174U 21125U   25267.26684032  .00006060  00000+0  39837-3 0  9995,2 50174  53.2151 271.8337 0001287  85.3259 274.7880 15.08854807211586,15.08854807,0.0001287,LEO
50175,STARLINK-3291,2021,95.44,260.0,+,53.22,Active,1,LEO,USA,USA,Commercial,Communications,Falcon,1 50175U 21125V   25267.31134666  .00000424  00000+0  44732-4 0  9994,2 50175  53.2166 276.0219 0001151  89.7810 270.3314 15.08836569211488,15.08836569,0.0001151,LEO
50176,STARLINK-3293,2021,95.44,260.0,+,53.22,Active,1,LEO,USA,USA,Commercial,Communications,Falcon,1 50176U 21125W   25267.22670469  .00000810  00000+0  68966-4 0  9995,2 50176  53.2171 276.4033 0001283  86.8412 273.2727 15.08838705211513,15.08838705,0.0001283,LEO
50177,STARLINK-3282,2021,95.44,260.0,+,53.22,Active,1,LEO,USA,USA,Commercial,Communications,Falcon,1 50177U 21125X   25267.30398642 -.00000414  00000+0 -79003-5 0  9992,2 50177  53.2165 276.0551 0001353  83.3112 276.8034 15.08841477211481,15.08841477,0.0001353,LEO
50178,STARLINK-3284,2021,94.92,260.0,P,53.22,Active,1,LEO,USA,USA,Commercial,Communications,Falcon,1 50178U 21125Y   25267.33336806  .00073863  00000+0  36876-2 0  9994,2 50178  53.2170 275.5001 0001474  76.9897 163.4320 15.16845653  5663,15.16845653,0.0001474,LEO
50179,STARLINK-3283,2021,95.44,260.0,+,53.22,Active,1,LEO,USA,USA,Commercial,Communications,Falcon,1 50179U 21125Z   25267.23039384  .00004802  00000+0  31941-3 0  9991,2 50179  53.2160 276.3866 0001210  96.0983 264.0147 15.08857927211479,15.08857927,0.000121,LEO
50180,STARLINK-3265,2021,95.44,260.0,+,53.22,Active,1,LEO,USA,USA,Commercial,Communications,Falcon,1 50180U 21125AA  25267.28286637  .00000329  00000+0  38781-4 0  9993,2 50180  53.2176 276.1615 0001430  88.9269 271.1887 15.08838866211526,15.08838866,0.000143,LEO
50181,STARLINK-3285,2021,95.44,260.0,+,53.22,Active,1,LEO,USA,USA,Commercial,Communications,Falcon,1 50181U 21125AB  25267.27550720  .00000107  00000+0  24835-4 0  9999,2 50181  53.2163 276.1926 0001356  90.5127 269.6020 15.08839084211486,15.08839084,0.0001356,LEO
50182,STARLINK-3277,2021,95.44,260.0,+,53.22,Active,1,LEO,USA,USA,Commercial,Communications,Falcon,1 50182U 21125AC  25267.18621036 -.00000406  00000+0 -74330-5 0  9999,2 50182  53.2152 276.4307 0001261  90.9389 269.1748 15.08832222211502,15.08832222,0.0001261,LEO
50183,STARLINK-3281,2021,95.44,260.0,+,53.22,Active,1,LEO,USA,USA,Commercial,Communications,Falcon,1 50183U 21125AD  25267.27086819 -.00002384  00000+0 -13177-3 0  9991,2 50183  53.2154 276.2017 0000987  78.2957 281.8146 15.08843096211521,15.08843096,9.87e-05,LEO
50185,STARLINK-3279,2021,95.44,260.0,+,53.22,Active,1,LEO,USA,USA,Commercial,Communications,Falcon,1 50185U 21125AF  25267.28191300  .00002452  00000+0  17214-3 0  9996,2 50185  53.2157 276.1935 0001390  79.9555 280.1594 15.08833863211480,15.08833863,0.000139,LEO
